[{"OBJECT_NAME":"GECAM-A","OBJECT_ID":"2020-094A","EPOCH":"2026-02-27T03:21:27.347040","MEAN_MOTION":15.0033434,"ECCENTRICITY":0.00107,"INCLINATION":28.9961,"RA_OF_ASC_NODE":20.3521,"ARG_OF_PERICENTER":243.6219,"MEAN_ANOMALY":116.328,"EPHEMERIS_TYPE":0,"CLASSIFICATION_TYPE":"U","NORAD_CAT_ID":47234,"ELEMENT_SET_NO":999,"REV_AT_EPOCH":28514,"BSTAR":0.00017329,"MEAN_MOTION_DOT":2.379e-5,"MEAN_MOTION_DDOT":0},{"OBJECT_NAME":"GRUS-1B","OBJECT_ID":"2021-022C","EPOCH":"2026-03-09T23:21:03.699936","MEAN_MOTION":14.98735678,"ECCENTRICITY":0.00144346,"INCLINATION":97.554,"RA_OF_ASC_NODE":315.3658,"ARG_OF_PERICENTER":300.5216,"MEAN_ANOMALY":59.4582,"EPHEMERIS_TYPE":0,"CLASSIFICATION_TYPE":"U","NORAD_CAT_ID":47934,"ELEMENT_SET_NO":999,"REV_AT_EPOCH":27103,"BSTAR":0.00025294791,"MEAN_MOTION_DOT":2.992e-5,"MEAN_MOTION_DDOT":0}]
